TWILIGHT D              
1 67366U 26004D   26024.93692972  .00006043  00000+0  67914-3 0  9993
2 67366  97.8030  25.8673 0007362 235.7819 124.2700 14.87064864  1994
TWILIGHT E              
1 67367U 26004E   26024.93628749  .00007489  00000+0  83804-3 0  9996
2 67367  97.7961  25.8665 0006402 251.8204 108.2315 14.87165315  1996
TWILIGHT F              
1 67368U 26004F   26024.86863083  .00006545  00000+0  73254-3 0  9991
2 67368  97.8022  25.8029 0006769 238.2418 121.8139 14.87207726  1989
TWILIGHT G              
1 67369U 26004G   26024.93526029  .00004612  00000+0  51778-3 0  9996
2 67369  97.7952  25.8679 0005857 253.3113 106.7460 14.87233620  1991
TWILIGHT H              
1 67370U 26004H   26024.86757824  .00005888  00000+0  65838-3 0  9997
2 67370  97.7951  25.8018 0005548 254.7044 105.3559 14.87288211  1983
TWILIGHT J              
1 67371U 26004J   26024.93195370  .00010303  00000+0  11366-2 0  9992
2 67371  97.7992  25.8729 0004637 236.6817 123.3956 14.87661273  1998
TWILIGHT K              
1 67372U 26004K   26024.92900204  .00004195  00000+0  46366-3 0  9993
2 67372  97.7970  25.8752 0002996 230.0841 130.0112 14.87933583  1997
TWILIGHT L              
1 67373U 26004L   26024.93251000  .00004483  00000+0  49978-3 0  9990
2 67373  97.7984  25.8718 0004610 242.1150 117.9599 14.87539489  1997
TWILIGHT M              
1 67374U 26004M   26024.92967304  .00005051  00000+0  55762-3 0  9991
2 67374  97.7969  25.8731 0003251 230.9899 129.1029 14.87882919  1993
TWILIGHT N              
1 67375U 26004N   26024.92943242  .00004927  00000+0  54374-3 0  9996
2 67375  97.8006  25.8778 0003813 224.4630 135.6281 14.87907903  1996
TWILIGHT P              
1 67376U 26004P   26024.93072769  .00004951  00000+0  54832-3 0  9991
2 67376  97.8003  25.8754 0004183 231.2182 128.8661 14.87759458  1993
TWILIGHT Q              
1 67377U 26004Q   26024.18958978 -.00034550  00000+0 -37953-2 0  9998
2 67377  97.8004  25.1505 0002936 239.2690 120.8238 14.87825869  1877
TWILIGHT R              
1 67378U 26004R   26024.93139448  .00005423  00000+0  60117-3 0  9999
2 67378  97.7977  25.8717 0003632 242.5553 117.5294 14.87682291  1984
TWILIGHT S              
1 67379U 26004S   26024.93128397  .00005210  00000+0  57761-3 0  9996
2 67379  97.7981  25.8732 0004135 237.7772 122.3043 14.87693402  1987
TWILIGHT T              
1 67380U 26004T   26024.93051209  .00006483  00000+0  71555-3 0  9995
2 67380  97.7973  25.8733 0003641 237.0176 123.0691 14.87790151  1989
TWILIGHT U              
1 67381U 26004U   26024.25682083 -.00008196  00000+0 -89135-3 0  9999
2 67381  97.8008  25.2181 0004127 236.2727 123.8096 14.87868184  1882
TWILIGHT V              
1 67382U 26004V   26024.92871432  .00005387  00000+0  59283-3 0  9990
2 67382  97.8001  25.8780 0003528 219.7014 140.3945 14.87984260  1988
TWILIGHT W              
1 67383U 26004W   26024.93117025  .00005891  00000+0  65214-3 0  9994
2 67383  97.7977  25.8730 0003948 239.2401 120.8427 14.87706828  1988
TWILIGHT X              
1 67384U 26004X   26024.92794015  .00010353  00000+0  11287-2 0  9993
2 67384  97.7976  25.8772 0002911 221.9175 138.1819 14.88143141  1980
TWILIGHT Y              
1 67385U 26004Y   26024.92718080  .00009933  00000+0  10810-2 0  9995
2 67385  97.7987  25.8789 0002819 214.2834 145.8201 14.88226251  1989
TWILIGHT Z              
1 67386U 26004Z   26024.92586196  .00004588  00000+0  50200-3 0  9996
2 67386  97.7968  25.8803 0001704 211.8834 148.2280 14.88293602  1989
TWILIGHT AA             
1 67387U 26004AA  26024.85658397  .00006855  00000+0  74194-3 0  9999
2 67387  97.8018  25.8180 0002817 175.2885 184.8359 14.88569058  1973
TWILIGHT AB             
1 67388U 26004AB  26024.85543441  .00006293  00000+0  67986-3 0  9990
2 67388  97.8007  25.8194 0002485 159.6773 200.4544 14.88674069  1970
TWILIGHT AC             
1 67389U 26004AC  26024.80773202  .00009450  00000+0  48140-3 0  9995
2 67389  97.4569  25.9645 0005090 108.6475 251.5311 15.16985406  2006
TWILIGHT AD             
1 67390U 26004AD  26024.80725919  .00013921  00000+0  70659-3 0  9997
2 67390  97.4570  25.9663 0005316 107.2838 252.8977 15.17013091  2004
TWILIGHT AE             
1 67391U 26004AE  26024.93745151  .00008747  00000+0  44326-3 0  9994
2 67391  97.4520  26.0891 0006756 102.6365 257.5624 15.17186196  2028
TWILIGHT AF             
1 67392U 26004AF  26024.93601401  .00015894  00000+0  79352-3 0  9992
2 67392  97.4499  26.0865 0007396 105.4445 254.7606 15.17551314  2023
TWILIGHT AG             
1 67393U 26004AG  26024.73719669  .00017436  00000+0  86616-3 0  9992
2 67393  97.4527  25.8996 0007477 110.9682 249.2353 15.17706881  1996
TWILIGHT AH             
1 67394U 26004AH  26024.92918546  .00007954  00000+0  39220-3 0  9992
2 67394  97.4467  26.0900 0010724 111.6731 248.5646 15.18144200  2024
TWILIGHT AJ             
1 67395U 26004AJ  26024.93045278  .00003921  00000+0  43547-3 0  9994
2 67395  97.8005  25.8766 0004040 230.9385 129.1472 14.87767714  1978
TWILIGHT AK             
1 67396U 26004AK  26024.93273943  .00008245  00000+0  41109-3 0  9993
2 67396  97.4504  26.0923 0008815 111.0877 249.1300 15.17757550  2027
TWILIGHT AL             
1 67397U 26004AL  26024.93443390  .00013084  00000+0  65306-3 0  9991
2 67397  97.4526  26.0942 0007751 111.5147 248.6913 15.17603415  2020
TWILIGHT AM             
1 67398U 26004AM  26024.86641935  .00015193  00000+0  75281-3 0  9995
2 67398  97.4560  26.0381 0008574 118.3227 241.8873 15.17818589  2013
TWILIGHT AN             
1 67399U 26004AN  26024.93097275  .00009669  00000+0  47859-3 0  9997
2 67399  97.4550  26.1029 0009296 118.5442 241.6729 15.17962901  2023
TWILIGHT AP             
1 67400U 26004AP  26024.92820574  .00006885  00000+0  33881-3 0  9992
2 67400  97.4549  26.1061 0010782 119.5646 240.6664 15.18265152  2021
TWILIGHT AQ             
1 67401U 26004AQ  26024.92729412  .00009672  00000+0  47290-3 0  9998
2 67401  97.4491  26.0973 0011528 115.1106 245.1325 15.18370770  2028
TWILIGHT AR             
1 67402U 26004AR  26024.80914883  .00008210  00000+0  42106-3 0  9992
2 67402  97.4551  25.9606 0004831  96.8621 263.3162 15.16791128  1991
SHIJIAN-29B (SJ-29B)    
1 67403U 25315C   26024.87346845 -.00000054  00000+0  00000+0 0  9993
2 67403   3.0335  98.8922 0001157 319.4293  93.3882  1.00273555   257
STARLINK-36484          
1 67404U 26005A   26024.91668981 -.01414878  00000+0 -81083-2 0  9992
2 67404  43.0001 131.3925 0001366 274.4860 342.5751 15.80516958  3099
STARLINK-36452          
1 67405U 26005B   26024.91668981 -.01423980  00000+0 -81751-2 0  9999
2 67405  43.0004 131.3871 0001485 276.7385 342.5395 15.80494589  3091
STARLINK-36409          
1 67406U 26005C   26024.91668981 -.01427671  00000+0 -82046-2 0  9999
2 67406  43.0001 131.3817 0001400 282.7735 338.5999 15.80480974  3146
STARLINK-36510          
1 67407U 26005D   26024.91668981 -.01435215  00000+0 -82527-2 0  9997
2 67407  43.0003 131.3769 0001526 274.5754 348.8092 15.80481723  3145
STARLINK-36509          
1 67408U 26005E   26024.91668981 -.01451399  00000+0 -83676-2 0  9995
2 67408  43.0003 131.3707 0001328 273.1137 352.4991 15.80458935  3146
STARLINK-36507          
1 67409U 26005F   26024.91668981 -.01461981  00000+0 -84369-2 0  9994
2 67409  43.0003 131.3656 0001327 277.4658 350.1677 15.80458246  3145
STARLINK-36508          
1 67410U 26005G   26024.91668981 -.01487769  00000+0 -86146-2 0  9993
2 67410  43.0004 131.3602 0001305 271.8785 357.9935 15.80436365  3144
STARLINK-36503          
1 67411U 26005H   26024.91668981 -.01496876  00000+0 -86673-2 0  9998
2 67411  43.0003 131.3552 0001670 279.1433 352.6449 15.80449896  2889
STARLINK-36446          
1 67412U 26005J   26024.91668981 -.01516755  00000+0 -88050-2 0  9999
2 67412  43.0006 131.3499 0001497 279.1681 354.7605 15.80435541  3144
STARLINK-36442          
1 67413U 26005K   26024.91668981 -.01533753  00000+0 -89334-2 0  9993
2 67413  42.9999 131.3439 0001690 279.8668 356.3657 15.80394912  3146
STARLINK-36506          
1 67414U 26005L   26024.91668981 -.01538692  00000+0 -89665-2 0  9998
2 67414  43.0003 131.3389 0001543 277.1972   0.9985 15.80395975  3141
STARLINK-36468          
1 67415U 26005M   26024.91668981 -.01541202  00000+0 -89761-2 0  9997
2 67415  43.0002 131.3345 0001532 276.7941   3.2353 15.80413004  3095
STARLINK-36487          
1 67416U 26005N   26024.91668981 -.01544656  00000+0 -90015-2 0  9998
2 67416  43.0002 131.3292 0001459 278.9040   3.1222 15.80408182  3140
STARLINK-36374          
1 67417U 26005P   26024.91668981 -.01554004  00000+0 -90732-2 0  9993
2 67417  43.0003 131.3239 0001347 276.8874   7.2659 15.80387071  3143
STARLINK-36455          
1 67418U 26005Q   26024.91668981 -.01561358  00000+0 -91417-2 0  9995
2 67418  43.0003 131.3179 0001345 272.7907  13.6288 15.80341667  3147
STARLINK-36424          
1 67419U 26005R   26024.91668981 -.01572035  00000+0 -92295-2 0  9995
2 67419  43.0002 131.3126 0001608 276.3462  12.3332 15.80300701  3147
STARLINK-35564          
1 67420U 26005S   26024.91668981 -.01575684  00000+0 -92647-2 0  9991
2 67420  43.0003 131.3077 0001525 279.5269  11.2477 15.80277005  3040
STARLINK-36431          
1 67421U 26005T   26024.91668981 -.01587078  00000+0 -93497-2 0  9996
2 67421  43.0005 131.3022 0001643 275.3819  17.5084 15.80256849  2943
STARLINK-36418          
1 67422U 26005U   26024.91668981 -.01587188  00000+0 -93498-2 0  9990
2 67422  43.0002 131.2974 0001546 280.2744  14.5483 15.80259368  3108
STARLINK-36465          
1 67423U 26005V   26024.91668981 -.01602398  00000+0 -94703-2 0  9992
2 67423  43.0007 131.2918 0001679 276.2398  20.8309 15.80218020  2891
STARLINK-36362          
1 67424U 26005W   26024.91668981 -.01605951  00000+0 -95118-2 0  9992
2 67424  43.0006 131.2865 0001532 281.1051  18.1378 15.80180590  3146
